[{"OBJECT_NAME":"STARLINK-1452","OBJECT_ID":"2020-035N","EPOCH":"2026-03-09T03:54:47.994336","MEAN_MOTION":15.44914586,"ECCENTRICITY":0.00080076,"INCLINATION":53.0334,"RA_OF_ASC_NODE":24.2429,"ARG_OF_PERICENTER":52.8149,"MEAN_ANOMALY":307.3586,"EPHEMERIS_TYPE":0,"CLASSIFICATION_TYPE":"U","NORAD_CAT_ID":45669,"ELEMENT_SET_NO":999,"REV_AT_EPOCH":31928,"BSTAR":0.0019010434,"MEAN_MOTION_DOT":0.0009155,"MEAN_MOTION_DDOT":0},{"OBJECT_NAME":"TANAGER-1","OBJECT_ID":"2024-149AR","EPOCH":"2026-03-09T19:44:53.485728","MEAN_MOTION":15.43548408,"ECCENTRICITY":0.00097475,"INCLINATION":97.3806,"RA_OF_ASC_NODE":162.1974,"ARG_OF_PERICENTER":227.382,"MEAN_ANOMALY":132.6607,"EPHEMERIS_TYPE":0,"CLASSIFICATION_TYPE":"U","NORAD_CAT_ID":60507,"ELEMENT_SET_NO":999,"REV_AT_EPOCH":8770,"BSTAR":0.00054444932,"MEAN_MOTION_DOT":0.00024437,"MEAN_MOTION_DDOT":0}]
